{
  "name": "SATGUS",
  "line1": "1 62713U 25009DJ  26153.73199983  .00007265  00000+0  57295-3 0  9991",
  "line2": "2 62713  97.6964 235.2478 0008869 158.9664 201.1926 15.01012431 75396",
  "fetched_at": "2026-06-03T00:56:34.060821+00:00"
}